IRIDIUM 136             
1 42962U 17061H   24045.21710580  .00000465  00000+0  15908-3 0  9997
2 42962  86.3981  22.1103 0002105  80.0633 280.0800 14.34216084332433
